[{"OBJECT_NAME":"STARLINK-30987","OBJECT_ID":"2023-186Q","EPOCH":"2026-03-09T00:44:57.627456","MEAN_MOTION":15.2757594,"ECCENTRICITY":0.00018442,"INCLINATION":43.0024,"RA_OF_ASC_NODE":67.517,"ARG_OF_PERICENTER":288.8768,"MEAN_ANOMALY":71.1883,"EPHEMERIS_TYPE":0,"CLASSIFICATION_TYPE":"U","NORAD_CAT_ID":58487,"ELEMENT_SET_NO":999,"REV_AT_EPOCH":12578,"BSTAR":-3.655461e-6,"MEAN_MOTION_DOT":-3.63e-6,"MEAN_MOTION_DDOT":0},{"OBJECT_NAME":"TIANMU-1 15","OBJECT_ID":"2024-004A","EPOCH":"2026-03-09T23:35:22.816608","MEAN_MOTION":15.25840188,"ECCENTRICITY":0.00066612,"INCLINATION":97.4675,"RA_OF_ASC_NODE":255.2203,"ARG_OF_PERICENTER":349.0037,"MEAN_ANOMALY":11.1054,"EPHEMERIS_TYPE":0,"CLASSIFICATION_TYPE":"U","NORAD_CAT_ID":58700,"ELEMENT_SET_NO":999,"REV_AT_EPOCH":12064,"BSTAR":0.0003159702,"MEAN_MOTION_DOT":8.018e-5,"MEAN_MOTION_DDOT":0}]
